CCSDS_OMM_VERS = 2.0
CREATION_DATE  = 
ORIGINATOR     = 

OBJECT_NAME    = STARLINK-36595
OBJECT_ID      = 2026-020Y
CENTER_NAME    = EARTH
REF_FRAME      = TEME
TIME_SYSTEM    = UTC
MEAN_ELEMENT_THEORY = SGP/SGP4

EPOCH          = 2026-02-28T18:22:01.893216
MEAN_MOTION    = 15.76447169
ECCENTRICITY   = .00011376
INCLINATION    = 42.9985
RA_OF_ASC_NODE = 195.8681
ARG_OF_PERICENTER = 289.3783
MEAN_ANOMALY   = 70.6964

EPHEMERIS_TYPE = 0
CLASSIFICATION_TYPE = U
NORAD_CAT_ID   = 67639
ELEMENT_SET_NO = 999
REV_AT_EPOCH   = 468
BSTAR          = .19405493E-2
MEAN_MOTION_DOT = .329281E-2
MEAN_MOTION_DDOT = 0

CCSDS_OMM_VERS = 2.0
CREATION_DATE  = 
ORIGINATOR     = 

OBJECT_NAME    = STARLINK-36570
OBJECT_ID      = 2026-020Z
CENTER_NAME    = EARTH
REF_FRAME      = TEME
TIME_SYSTEM    = UTC
MEAN_ELEMENT_THEORY = SGP/SGP4

EPOCH          = 2026-02-28T17:22:19.224768
MEAN_MOTION    = 15.76438803
ECCENTRICITY   = .00014234
INCLINATION    = 42.9983
RA_OF_ASC_NODE = 196.4311
ARG_OF_PERICENTER = 296.9524
MEAN_ANOMALY   = 63.1200

EPHEMERIS_TYPE = 0
CLASSIFICATION_TYPE = U
NORAD_CAT_ID   = 67640
ELEMENT_SET_NO = 999
REV_AT_EPOCH   = 467
BSTAR          = .208485E-2
MEAN_MOTION_DOT = .354749E-2
MEAN_MOTION_DDOT = 0

CCSDS_OMM_VERS = 2.0
CREATION_DATE  = 
ORIGINATOR     = 

OBJECT_NAME    = STARLINK-36514
OBJECT_ID      = 2026-020AA
CENTER_NAME    = EARTH
REF_FRAME      = TEME
TIME_SYSTEM    = UTC
MEAN_ELEMENT_THEORY = SGP/SGP4

EPOCH          = 2026-02-28T17:59:57.053760
MEAN_MOTION    = 15.76457520
ECCENTRICITY   = .00021548
INCLINATION    = 42.9985
RA_OF_ASC_NODE = 195.7438
ARG_OF_PERICENTER = 290.2409
MEAN_ANOMALY   = 69.8229

EPHEMERIS_TYPE = 0
CLASSIFICATION_TYPE = U
NORAD_CAT_ID   = 67641
ELEMENT_SET_NO = 999
REV_AT_EPOCH   = 468
BSTAR          = .18866353E-2
MEAN_MOTION_DOT = .319903E-2
MEAN_MOTION_DDOT = 0

CCSDS_OMM_VERS = 2.0
CREATION_DATE  = 
ORIGINATOR     = 

OBJECT_NAME    = STARLINK-36556
OBJECT_ID      = 2026-020AB
CENTER_NAME    = EARTH
REF_FRAME      = TEME
TIME_SYSTEM    = UTC
MEAN_ELEMENT_THEORY = SGP/SGP4

EPOCH          = 2026-02-28T18:37:46.992576
MEAN_MOTION    = 15.76452432
ECCENTRICITY   = .00029013
INCLINATION    = 43.0002
RA_OF_ASC_NODE = 195.9575
ARG_OF_PERICENTER = 270.4199
MEAN_ANOMALY   = 89.6338

EPHEMERIS_TYPE = 0
CLASSIFICATION_TYPE = U
NORAD_CAT_ID   = 67642
ELEMENT_SET_NO = 999
REV_AT_EPOCH   = 468
BSTAR          = .14640678E-2
MEAN_MOTION_DOT = .24592E-2
MEAN_MOTION_DDOT = 0

CCSDS_OMM_VERS = 2.0
CREATION_DATE  = 
ORIGINATOR     = 

OBJECT_NAME    = STARLINK-36533
OBJECT_ID      = 2026-020AC
CENTER_NAME    = EARTH
REF_FRAME      = TEME
TIME_SYSTEM    = UTC
MEAN_ELEMENT_THEORY = SGP/SGP4

EPOCH          = 2026-02-28T15:54:13.697856
MEAN_MOTION    = 15.76451625
ECCENTRICITY   = .00010959
INCLINATION    = 42.9996
RA_OF_ASC_NODE = 196.8337
ARG_OF_PERICENTER = 244.4095
MEAN_ANOMALY   = 115.6662

EPHEMERIS_TYPE = 0
CLASSIFICATION_TYPE = U
NORAD_CAT_ID   = 67643
ELEMENT_SET_NO = 999
REV_AT_EPOCH   = 466
BSTAR          = .2364632E-2
MEAN_MOTION_DOT = .405094E-2
MEAN_MOTION_DDOT = 0

CCSDS_OMM_VERS = 2.0
CREATION_DATE  = 
ORIGINATOR     = 

OBJECT_NAME    = STARLINK-36623
OBJECT_ID      = 2026-020AD
CENTER_NAME    = EARTH
REF_FRAME      = TEME
TIME_SYSTEM    = UTC
MEAN_ELEMENT_THEORY = SGP/SGP4

EPOCH          = 2026-02-28T18:47:14.599968
MEAN_MOTION    = 15.76448444
ECCENTRICITY   = .00030669
INCLINATION    = 42.9987
RA_OF_ASC_NODE = 196.0092
ARG_OF_PERICENTER = 278.5348
MEAN_ANOMALY   = 81.5174

EPHEMERIS_TYPE = 0
CLASSIFICATION_TYPE = U
NORAD_CAT_ID   = 67644
ELEMENT_SET_NO = 999
REV_AT_EPOCH   = 468
BSTAR          = .15842948E-2
MEAN_MOTION_DOT = .266774E-2
MEAN_MOTION_DDOT = 0

CCSDS_OMM_VERS = 2.0
CREATION_DATE  = 
ORIGINATOR     = 

OBJECT_NAME    = STARLINK-36619
OBJECT_ID      = 2026-020AE
CENTER_NAME    = EARTH
REF_FRAME      = TEME
TIME_SYSTEM    = UTC
MEAN_ELEMENT_THEORY = SGP/SGP4

EPOCH          = 2026-02-28T18:44:05.126496
MEAN_MOTION    = 15.76480559
ECCENTRICITY   = .00029167
INCLINATION    = 43.0016
RA_OF_ASC_NODE = 195.9914
ARG_OF_PERICENTER = 274.1883
MEAN_ANOMALY   = 85.8653

EPHEMERIS_TYPE = 0
CLASSIFICATION_TYPE = U
NORAD_CAT_ID   = 67645
ELEMENT_SET_NO = 999
REV_AT_EPOCH   = 468
BSTAR          = .17170066E-2
MEAN_MOTION_DOT = .290382E-2
MEAN_MOTION_DDOT = 0

CCSDS_OMM_VERS = 2.0
CREATION_DATE  = 
ORIGINATOR     = 

OBJECT_NAME    = ALSAT-3B
OBJECT_ID      = 2026-021A
CENTER_NAME    = EARTH
REF_FRAME      = TEME
TIME_SYSTEM    = UTC
MEAN_ELEMENT_THEORY = SGP/SGP4

EPOCH          = 2026-02-28T23:27:58.171104
MEAN_MOTION    = 15.23800567
ECCENTRICITY   = .00132395
INCLINATION    = 97.4690
RA_OF_ASC_NODE = 134.3536
ARG_OF_PERICENTER = 160.3731
MEAN_ANOMALY   = 199.8019

EPHEMERIS_TYPE = 0
CLASSIFICATION_TYPE = U
NORAD_CAT_ID   = 67646
ELEMENT_SET_NO = 999
REV_AT_EPOCH   = 439
BSTAR          = .30395677E-3
MEAN_MOTION_DOT = .7265E-4
MEAN_MOTION_DDOT = 0

CCSDS_OMM_VERS = 2.0
CREATION_DATE  = 
ORIGINATOR     = 

OBJECT_NAME    = CZ-2C R/B
OBJECT_ID      = 2026-021B
CENTER_NAME    = EARTH
REF_FRAME      = TEME
TIME_SYSTEM    = UTC
MEAN_ELEMENT_THEORY = SGP/SGP4

EPOCH          = 2026-02-28T21:58:07.841856
MEAN_MOTION    = 15.23827951
ECCENTRICITY   = .01520823
INCLINATION    = 97.6529
RA_OF_ASC_NODE = 135.2122
ARG_OF_PERICENTER = 41.8509
MEAN_ANOMALY   = 319.4237

EPHEMERIS_TYPE = 0
CLASSIFICATION_TYPE = U
NORAD_CAT_ID   = 67647
ELEMENT_SET_NO = 999
REV_AT_EPOCH   = 436
BSTAR          = .37752783E-3
MEAN_MOTION_DOT = .1256E-3
MEAN_MOTION_DDOT = 0

CCSDS_OMM_VERS = 2.0
CREATION_DATE  = 
ORIGINATOR     = 

OBJECT_NAME    = STARLINK-36719
OBJECT_ID      = 2026-022A
CENTER_NAME    = EARTH
REF_FRAME      = TEME
TIME_SYSTEM    = UTC
MEAN_ELEMENT_THEORY = SGP/SGP4

EPOCH          = 2026-02-28T15:24:08.915904
MEAN_MOTION    = 15.75280126
ECCENTRICITY   = .00021104
INCLINATION    = 97.2835
RA_OF_ASC_NODE = 93.1584
ARG_OF_PERICENTER = 73.3976
MEAN_ANOMALY   = 286.7521

EPHEMERIS_TYPE = 0
CLASSIFICATION_TYPE = U
NORAD_CAT_ID   = 67648
ELEMENT_SET_NO = 999
REV_AT_EPOCH   = 412
BSTAR          = .21760298E-2
MEAN_MOTION_DOT = .338979E-2
MEAN_MOTION_DDOT = 0

CCSDS_OMM_VERS = 2.0
CREATION_DATE  = 
ORIGINATOR     = 

OBJECT_NAME    = STARLINK-36342
OBJECT_ID      = 2026-022B
CENTER_NAME    = EARTH
REF_FRAME      = TEME
TIME_SYSTEM    = UTC
MEAN_ELEMENT_THEORY = SGP/SGP4

EPOCH          = 2026-02-28T15:23:07.527840
MEAN_MOTION    = 15.75235925
ECCENTRICITY   = .00017579
INCLINATION    = 97.2833
RA_OF_ASC_NODE = 93.1574
ARG_OF_PERICENTER = 71.2126
MEAN_ANOMALY   = 288.9330

EPHEMERIS_TYPE = 0
CLASSIFICATION_TYPE = U
NORAD_CAT_ID   = 67649
ELEMENT_SET_NO = 999
REV_AT_EPOCH   = 412
BSTAR          = .12023902E-2
MEAN_MOTION_DOT = .183486E-2
MEAN_MOTION_DDOT = 0

CCSDS_OMM_VERS = 2.0
CREATION_DATE  = 
ORIGINATOR     = 

OBJECT_NAME    = STARLINK-36703
OBJECT_ID      = 2026-022C
CENTER_NAME    = EARTH
REF_FRAME      = TEME
TIME_SYSTEM    = UTC
MEAN_ELEMENT_THEORY = SGP/SGP4

EPOCH          = 2026-02-28T15:21:35.418528
MEAN_MOTION    = 15.75131279
ECCENTRICITY   = .00015117
INCLINATION    = 97.2841
RA_OF_ASC_NODE = 93.1604
ARG_OF_PERICENTER = 99.5692
MEAN_ANOMALY   = 260.5744

EPHEMERIS_TYPE = 0
CLASSIFICATION_TYPE = U
NORAD_CAT_ID   = 67650
ELEMENT_SET_NO = 999
REV_AT_EPOCH   = 412
BSTAR          = .13881205E-2
MEAN_MOTION_DOT = .211592E-2
MEAN_MOTION_DDOT = 0

