STARLINK-36595          
1 67639U 26020Y   26059.76529969  .00329281  00000+0  19405-2 0  9991
2 67639  42.9985 195.8681 0001137 289.3783  70.6964 15.76447169  4680
STARLINK-36570          
1 67640U 26020Z   26059.72383362  .00354749  00000+0  20848-2 0  9994
2 67640  42.9983 196.4311 0001423 296.9524  63.1200 15.76438803  4676
STARLINK-36514          
1 67641U 26020AA  26059.74996590  .00319903  00000+0  18866-2 0  9990
2 67641  42.9985 195.7438 0002154 290.2409  69.8229 15.76457520  4684
STARLINK-36556          
1 67642U 26020AB  26059.77623834  .00245920  00000+0  14641-2 0  9996
2 67642  43.0002 195.9575 0002901 270.4199  89.6338 15.76452432  4685
STARLINK-36533          
1 67643U 26020AC  26059.66265854  .00405094  00000+0  23646-2 0  9994
2 67643  42.9996 196.8337 0001095 244.4095 115.6662 15.76451625  4662
STARLINK-36623          
1 67644U 26020AD  26059.78280787  .00266774  00000+0  15843-2 0  9990
2 67644  42.9987 196.0092 0003066 278.5348  81.5174 15.76448444  4688
STARLINK-36619          
1 67645U 26020AE  26059.78061489  .00290382  00000+0  17170-2 0  9994
2 67645  43.0016 195.9914 0002916 274.1883  85.8653 15.76480559  4686
ALSAT-3B                
1 67646U 26021A   26059.97775661  .00007265  00000+0  30396-3 0  9993
2 67646  97.4690 134.3536 0013239 160.3731 199.8019 15.23800567  4390
CZ-2C R/B               
1 67647U 26021B   26059.91536854  .00012560  00000+0  37753-3 0  9995
2 67647  97.6529 135.2122 0152082  41.8509 319.4237 15.23827951  4366
STARLINK-36719          
1 67648U 26022A   26059.64176986  .00338979  00000+0  21760-2 0  9998
2 67648  97.2835  93.1584 0002110  73.3976 286.7521 15.75280126  4121
STARLINK-36342          
1 67649U 26022B   26059.64105935  .00183486  00000+0  12024-2 0  9999
2 67649  97.2833  93.1574 0001757  71.2126 288.9330 15.75235925  4128
STARLINK-36703          
1 67650U 26022C   26059.63999327  .00211592  00000+0  13881-2 0  9998
2 67650  97.2841  93.1604 0001511  99.5692 260.5744 15.75131279  4124
